NORAD_CAT_ID,OBJECT_NAME,OBJECT_TYPE,EPOCH,MEAN_MOTION,ECCENTRICITY,INCLINATION,RA_OF_ASC_NODE,ARG_OF_PERICENTER,MEAN_ANOMALY,BSTAR,MEAN_MOTION_DOT,MEAN_MOTION_DDOT,TLE_LINE0,TLE_LINE1,TLE_LINE2,SEMIMAJOR_AXIS,PERIOD,APOGEE,PERIGEE,DECAYED
50844.0,STARLINK-3326,PAYLOAD,2024-07-19 09:13:56,15.08837979,0.0001456,53.2179,345.0212,67.9652,292.1495,0.00023415,3.44e-05,0.0,0 STARLINK-3326,1 50844U 22001AT  24201.38468712  .00003440  00000-0  23415-3 0  9993,2 50844  53.2179 345.0212 0001456  67.9652 292.1495 15.08837979141227,6917.887,95.438,540.759,538.744,0.0
50844.0,STARLINK-3326,PAYLOAD,2024-07-19 14:00:06,15.08835613,0.0001536,53.2175,344.127,63.431,296.6839,0.00015703,2.212e-05,0.0,0 STARLINK-3326,1 50844U 22001AT  24201.58340861  .00002212  00000-0  15703-3 0  9996,2 50844  53.2175 344.1270 0001536  63.4310 296.6839 15.08835613139971,6917.894,95.438,540.821,538.696,0.0
50844.0,STARLINK-3326,PAYLOAD,2024-07-19 17:10:52,15.0884361,0.0001368,53.2186,343.5308,73.4379,286.6763,0.00022527,3.299e-05,0.0,0 STARLINK-3326,1 50844U 22001AT  24201.71588487  .00003299  00000-0  22527-3 0  9997,2 50844  53.2186 343.5308 0001368  73.4379 286.6763 15.08843610139990,6917.869,95.437,540.681,538.788,0.0
50844.0,STARLINK-3326,PAYLOAD,2024-07-20 15:26:16,15.0884099,0.0001063,53.217,339.3614,86.9617,273.1496,0.00013707,1.894e-05,0.0,0 STARLINK-3326,1 50844U 22001AT  24202.64324629  .00001894  00000-0  13707-3 0  9995,2 50844  53.2170 339.3614 0001063  86.9617 273.1496 15.08840990140132,6917.877,95.437,540.478,539.007,0.0
50844.0,STARLINK-3326,PAYLOAD,2024-07-21 13:41:40,15.08851948,0.0001348,53.2183,335.2035,81.1732,278.9413,0.00029216,4.366e-05,0.0,0 STARLINK-3326,1 50844U 22001AT  24203.57060358  .00004366  00000-0  29216-3 0  9993,2 50844  53.2183 335.2035 0001348  81.1732 278.9413 15.08851948140271,6917.844,95.437,540.641,538.776,0.0
50844.0,STARLINK-3326,PAYLOAD,2024-07-21 15:17:03,15.08853036,0.0001311,53.2181,334.9061,82.1114,278.0026,0.00032097,4.826e-05,0.0,0 STARLINK-3326,1 50844U 22001AT  24203.63684291  .00004826  00000-0  32097-3 0  9990,2 50844  53.2181 334.9061 0001311  82.1114 278.0026 15.08853036140281,6917.841,95.437,540.612,538.799,0.0
50844.0,STARLINK-3326,PAYLOAD,2024-07-23 14:58:37,15.08848636,0.0001091,53.2161,325.9851,93.1175,266.9942,0.00024032,3.54e-05,0.0,0 STARLINK-3326,1 50844U 22001AT  24205.62404471  .00003540  00000-0  24032-3 0  9993,2 50844  53.2161 325.9851 0001091  93.1175 266.9942 15.08848636140586,6917.854,95.437,540.474,538.964,0.0
50844.0,STARLINK-3326,PAYLOAD,2024-07-23 18:09:23,15.08849971,0.0001215,53.2172,325.3908,98.7345,261.3785,0.00025222,3.73e-05,0.0,0 STARLINK-3326,1 50844U 22001AT  24205.75652393  .00003730  00000-0  25222-3 0  9998,2 50844  53.2172 325.3908 0001215  98.7345 261.3785 15.08849971141884,6917.85,95.437,540.555,538.874,0.0
50844.0,STARLINK-3326,PAYLOAD,2024-07-24 08:27:52,15.08833807,0.0001733,53.2169,322.7157,100.9107,259.208,1.3495e-05,-7.3e-07,0.0,0 STARLINK-3326,1 50844U 22001AT  24206.35269039 -.00000073  00000-0  13495-4 0  9994,2 50844  53.2169 322.7157 0001733 100.9107 259.2080 15.08833807141979,6917.899,95.438,540.963,538.565,0.0
50844.0,STARLINK-3326,PAYLOAD,2024-07-25 06:43:16,15.08831417,0.000138,53.2176,318.5494,88.3025,271.8125,3.1482e-05,2.13e-06,0.0,0 STARLINK-3326,1 50844U 22001AT  24207.28005571  .00000213  00000-0  31482-4 0  9997,2 50844  53.2176 318.5494 0001380  88.3025 271.8125 15.08831417140839,6917.907,95.438,540.726,538.817,0.0
50844.0,STARLINK-3326,PAYLOAD,2024-07-26 00:12:31,15.08834337,0.0001485,53.214,315.2814,85.5739,274.5423,0.00016971,2.414e-05,0.0,0 STARLINK-3326,1 50844U 22001AT  24208.00869701  .00002414  00000-0  16971-3 0  9991,2 50844  53.2140 315.2814 0001485  85.5739 274.5423 15.08834337142227,6917.898,95.438,540.79,538.735,0.0
50844.0,STARLINK-3326,PAYLOAD,2024-07-26 16:06:21,15.08854102,0.0001001,53.2141,312.3063,71.7397,288.3704,0.00024597,3.63e-05,0.0,0 STARLINK-3326,1 50844U 22001AT  24208.67107876  .00003630  00000-0  24597-3 0  9996,2 50844  53.2141 312.3063 0001001  71.7397 288.3704 15.08854102142321,6917.837,95.437,540.395,539.01,0.0
50844.0,STARLINK-3326,PAYLOAD,2024-07-27 12:46:21,15.08857655,0.0004971,53.2172,308.4421,79.3445,280.8107,0.00016958,2.412e-05,0.0,0 STARLINK-3326,1 50844U 22001AT  24209.53219869  .00002412  00000-0  16958-3 0  9997,2 50844  53.2172 308.4421 0004971  79.3445 280.8107 15.08857655142450,6917.826,95.436,543.13,536.253,0.0
50844.0,STARLINK-3326,PAYLOAD,2024-07-27 14:21:46,15.08834291,0.0001433,53.2176,308.1428,68.0769,292.0376,-3.6358e-05,-8.66e-06,0.0,0 STARLINK-3326,1 50844U 22001AT  24209.59845908 -.00000866  00000-0 -36358-4 0  9992,2 50844  53.2176 308.1428 0001433  68.0769 292.0376 15.08834291141185,6917.898,95.438,540.754,538.772,0.0
50844.0,STARLINK-3326,PAYLOAD,2024-07-27 23:54:06,15.0879284,0.0001806,53.2154,306.3612,76.6904,283.429,0.00069598,0.00010792,0.0,0 STARLINK-3326,1 50844U 22001AT  24209.99590816  .00010792  00000-0  69598-3 0  9999,2 50844  53.2154 306.3612 0001806  76.6904 283.4290 15.08792840142527,6918.025,95.441,541.139,538.64,0.0
50844.0,STARLINK-3326,PAYLOAD,2024-07-28 12:37:09,15.08840198,0.0001639,53.2174,303.9776,100.0756,260.0422,0.0001176,1.584e-05,0.0,0 STARLINK-3326,1 50844U 22001AT  24210.52580434  .00001584  00000-0  11760-3 0  9992,2 50844  53.2174 303.9776 0001639 100.0756 260.0422 15.08840198142601,6917.88,95.438,540.879,538.611,0.0
50844.0,STARLINK-3326,PAYLOAD,2024-07-28 15:47:55,15.0884331,0.0001695,53.218,303.3818,102.7266,257.3916,0.00013437,1.851e-05,0.0,0 STARLINK-3326,1 50844U 22001AT  24210.65828197  .00001851  00000-0  13437-3 0  9997,2 50844  53.2180 303.3818 0001695 102.7266 257.3916 15.08843310141342,6917.87,95.437,540.908,538.563,0.0
50844.0,STARLINK-3326,PAYLOAD,2024-07-29 12:27:56,15.08839038,0.0001836,53.2182,299.5147,109.114,251.0051,5.7875e-05,6.33e-06,0.0,0 STARLINK-3326,1 50844U 22001AT  24211.51940830  .00000633  00000-0  57875-4 0  9994,2 50844  53.2182 299.5147 0001836 109.1140 251.0051 15.08839038142753,6917.883,95.438,541.018,538.478,0.0
50844.0,STARLINK-3326,PAYLOAD,2024-07-29 14:03:20,15.08839234,0.0001835,53.2182,299.2175,108.8115,251.3076,5.7411e-05,6.26e-06,0.0,0 STARLINK-3326,1 50844U 22001AT  24211.58564818  .00000626  00000-0  57411-4 0  9997,2 50844  53.2182 299.2175 0001835 108.8115 251.3076 15.08839234141485,6917.883,95.438,541.017,538.478,0.0
50844.0,STARLINK-3326,PAYLOAD,2024-07-30 12:18:44,15.08838159,0.0001638,53.2161,295.0598,91.4134,268.7046,2.3743e-05,9e-07,0.0,0 STARLINK-3326,1 50844U 22001AT  24212.51301247  .00000090  00000-0  23743-4 0  9992,2 50844  53.2161 295.0598 0001638  91.4134 268.7046 15.08838159141624,6917.886,95.438,540.884,538.618,0.0
50844.0,STARLINK-3326,PAYLOAD,2024-07-31 12:09:29,15.08857447,0.0001385,53.2182,290.6014,87.9272,272.1879,0.00014368,2.001e-05,0.0,0 STARLINK-3326,1 50844U 22001AT  24213.50659519  .00002001  00000-0  14368-3 0  9996,2 50844  53.2182 290.6014 0001385  87.9272 272.1879 15.08857447143056,6917.827,95.436,540.65,538.734,0.0
50844.0,STARLINK-3326,PAYLOAD,2024-08-01 12:00:18,15.08842216,0.0001345,53.2175,286.1411,97.3717,262.7428,4.0996e-05,3.65e-06,0.0,0 STARLINK-3326,1 50844U 22001AT  24214.50020961  .00000365  00000-0  40996-4 0  9998,2 50844  53.2175 286.1411 0001345  97.3717 262.7428 15.08842216143204,6917.874,95.437,540.669,538.808,0.0
50844.0,STARLINK-3326,PAYLOAD,2024-08-01 21:32:36,15.08841961,0.0001359,53.2172,284.3567,94.3297,265.7851,6.0155e-06,-1.92e-06,0.0,0 STARLINK-3326,1 50844U 22001AT  24214.89765025 -.00000192  00000-0  60155-5 0  9996,2 50844  53.2172 284.3567 0001359  94.3297 265.7851 15.08841961141980,6917.874,95.437,540.68,538.799,0.0
50844.0,STARLINK-3326,PAYLOAD,2024-08-02 13:26:28,15.08842377,0.0001543,53.2181,281.384,84.504,275.6128,-8.4502e-05,-1.633e-05,0.0,0 STARLINK-3326,1 50844U 22001AT  24215.56005374 -.00001633  00000-0 -84502-4 0  9998,2 50844  53.2181 281.3840 0001543  84.5040 275.6128 15.08842377143366,6917.873,95.437,540.806,538.671,0.0
50844.0,STARLINK-3326,PAYLOAD,2024-08-02 21:23:24,15.08837844,0.0001274,53.217,279.8937,79.8028,280.3108,-0.0001284,-2.331e-05,0.0,0 STARLINK-3326,1 50844U 22001AT  24215.89125565 -.00002331  00000-0 -12840-3 0  9990,2 50844  53.2170 279.8937 0001274  79.8028 280.3108 15.08837844142135,6917.887,95.438,540.633,538.871,0.0
50844.0,STARLINK-3326,PAYLOAD,2024-08-03 05:20:20,15.08835797,0.0001168,53.217,278.4078,91.1349,268.9776,1.3844e-05,-6.8e-07,0.0,0 STARLINK-3326,1 50844U 22001AT  24216.22245895 -.00000068  00000-0  13844-4 0  9997,2 50844  53.2170 278.4078 0001168  91.1349 268.9776 15.08835797143466,6917.893,95.438,540.566,538.95,0.0
50844.0,STARLINK-3326,PAYLOAD,2024-08-03 13:17:15,15.08846338,0.0001325,53.2167,276.9207,86.225,273.8893,0.00011561,1.553e-05,0.0,0 STARLINK-3326,1 50844U 22001AT  24216.55364972  .00001553  00000-0  11561-3 0  9993,2 50844  53.2167 276.9207 0001325  86.2250 273.8893 15.08846338143514,6917.861,95.437,540.643,538.809,0.0
50844.0,STARLINK-3326,PAYLOAD,2024-08-03 14:52:38,15.08849073,0.0001264,53.2168,276.623,83.4617,276.6519,0.00011804,1.592e-05,0.0,0 STARLINK-3326,1 50844U 22001AT  24216.61988775  .00001592  00000-0  11804-3 0  9996,2 50844  53.2168 276.6230 0001264  83.4617 276.6519 15.08849073142240,6917.853,95.437,540.592,538.843,0.0
50844.0,STARLINK-3326,PAYLOAD,2024-08-03 21:14:12,15.08832134,0.000148,53.2181,275.4385,90.3102,269.8059,3.586e-05,2.83e-06,0.0,0 STARLINK-3326,1 50844U 22001AT  24216.88486208  .00000283  00000-0  35860-4 0  9994,2 50844  53.2181 275.4385 0001480  90.3102 269.8059 15.08832134143568,6917.904,95.438,540.793,538.746,0.0
50844.0,STARLINK-3326,PAYLOAD,2024-08-04 13:08:02,15.08851756,0.0001334,53.2162,272.4601,87.4194,272.695,0.00019048,2.746e-05,0.0,0 STARLINK-3326,1 50844U 22001AT  24217.54724853  .00002746  00000-0  19048-3 0  9994,2 50844  53.2162 272.4601 0001334  87.4194 272.6950 15.08851756143665,6917.844,95.437,540.632,538.787,0.0
